OBJECT_NAME,OBJECT_ID,EPOCH,MEAN_MOTION,ECCENTRICITY,INCLINATION,RA_OF_ASC_NODE,ARG_OF_PERICENTER,MEAN_ANOMALY,EPHEMERIS_TYPE,CLASSIFICATION_TYPE,NORAD_CAT_ID,ELEMENT_SET_NO,REV_AT_EPOCH,BSTAR,MEAN_MOTION_DOT,MEAN_MOTION_DDOT
SL-16 R/B,1994-077B,2026-07-13T02:59:56.263200,14.15574600,.00040908,70.9823,88.5951,304.9983,55.0756,0,U,23405,999,63398,-.73168018E-4,-.191E-5,0
ARIANE 40+ R/B,1995-021B,2026-07-13T04:14:31.009920,14.39846937,.00078451,98.4401,263.8749,121.6463,264.6723,0,U,23561,999,63730,.52738263E-4,.122E-5,0
SL-16 R/B,1995-058B,2026-07-13T05:00:27.245088,14.15508209,.00146033,71.0211,276.7264,285.3211,74.6298,0,U,23705,999,58561,.5221787E-4,.54E-6,0
SL-16 R/B,1996-051B,2026-07-13T07:19:42.524256,14.12455729,.00176557,70.7647,269.3763,300.5342,59.4035,0,U,24298,999,53938,.10579106E-3,.146E-5,0
ORBVIEW 2 (SEASTAR),1997-037A,2026-07-12T21:04:41.972448,14.35566188,.00031359,98.8711,1.6123,65.5807,294.5705,0,U,24883,999,52643,.55497278E-4,.113E-5,0
SL-16 R/B,1998-043G,2026-07-12T19:57:51.642144,14.26072492,.00101613,98.8378,148.2137,18.0514,342.1024,0,U,25400,999,45682,.1594038E-4,-.7E-7,0
SL-16 R/B,1998-045B,2026-07-13T03:47:30.431904,14.16206057,.00083193,71.0114,277.7129,209.6452,150.4201,0,U,25407,999,44486,-.98828133E-4,-.244E-5,0
ISS (ZARYA),1998-067A,2026-07-13T02:54:40.039200,15.48996109,.00066854,51.6304,171.7447,289.3803,70.6462,0,U,25544,999,57577,.86456021E-4,.4316E-4,0
CZ-4B R/B,1999-025C,2026-07-13T02:13:35.861088,14.18287488,.0036744,98.6473,235.2777,345.8565,40.8493,0,U,25732,999,40594,.32307441E-4,.24E-6,0
OKEAN-O,1999-039A,2026-07-12T18:14:36.780288,14.80495702,.00009276,97.9303,252.2628,82.8184,277.3133,0,U,25860,999,45289,.43798611E-4,.283E-5,0
SL-16 R/B,1999-039B,2026-07-13T02:17:58.359840,14.81869576,.00141661,97.9824,252.8832,205.4976,154.5539,0,U,25861,999,45543,.37296366E-4,.241E-5,0
DELTA 2 R/B,1999-041E,2026-07-12T22:33:19.607328,14.12078490,.050133,51.7613,160.9088,358.0974,1.8044,0,U,25876,999,38072,.24967365E-3,.1315E-4,0
HELIOS 1B,1999-064A,2026-07-13T03:13:49.300896,14.88072367,.00020619,98.1588,100.0232,56.5993,303.5420,0,U,25977,999,70391,.82481544E-4,.7E-5,0
TERRA,1999-068A,2026-07-13T05:58:12.184032,14.61122807,.00033318,97.9443,242.7599,126.7557,308.3345,0,U,25994,999,41341,.50029527E-4,.202E-5,0
SL-16 R/B,2000-006B,2026-07-12T23:51:16.888608,14.15838534,.00171055,71.0002,194.3615,343.0288,17.0260,0,U,26070,999,36629,-.85221239E-4,-.216E-5,0
TITAN 4B R/B,2000-047B,2026-07-13T05:16:47.602560,15.10327549,.00458758,67.9872,47.2885,260.7247,98.8713,0,U,26474,999,41186,.86390166E-4,.1312E-4,0
ENVISAT,2002-009A,2026-07-13T08:00:30.017664,14.39070518,.00013411,98.3846,145.0709,84.1215,33.4191,0,U,27386,999,27724,.19937125E-4,.19E-6,0
IDEFIX & ARIANE 42P R/B,2002-021B,2026-07-13T06:41:02.279040,14.31093264,.00117708,98.5943,131.4794,172.0547,188.0824,0,U,27422,999,26198,.49823235E-4,.88E-6,0
AQUA,2002-022A,2026-07-13T06:31:00.960960,14.62195432,.00008822,98.4294,164.0786,109.6165,354.0459,0,U,27424,999,28708,.84879045E-4,.378E-5,0
CZ-4B R/B,2002-024C,2026-07-12T23:38:00.394656,14.14567965,.00505755,98.8688,246.6356,28.2172,21.4970,0,U,27432,999,24695,.28071361E-4,.1E-6,0
MIDORI II (ADEOS-II),2002-056A,2026-07-12T21:33:52.771680,14.29362450,.00015809,98.7893,153.3791,43.3981,316.7325,0,U,27597,999,22818,.59669426E-4,.107E-5,0
H-2A R/B,2002-056E,2026-07-13T07:58:05.833344,14.33833287,.00707896,98.3328,150.0555,146.4227,335.3195,0,U,27601,999,23211,.54669574E-4,.115E-5,0
CZ-4B R/B,2003-049C,2026-07-13T00:25:19.477056,14.55115266,.00475082,98.6908,193.8937,207.9769,151.8872,0,U,28059,999,20482,.45200418E-4,.146E-5,0
CZ-2C R/B,2004-012C,2026-07-13T03:52:27.184800,15.84778211,.00114684,97.7067,272.9570,197.3679,162.7199,0,U,28222,999,22400,.42891622E-3,.100274E-2,0
SL-16 R/B,2004-021B,2026-07-13T07:47:34.697760,14.14616239,.00063754,71.0026,328.8335,226.5530,133.5062,0,U,28353,999,14060,.4351715E-4,.36E-6,0
CZ-4B R/B,2004-035C,2026-07-13T02:00:08.135136,15.30974783,.00291142,97.3359,226.8692,240.5375,119.2961,0,U,28415,999,19908,.15716059E-3,.4684E-4,0
CZ-2C R/B,2004-046B,2026-07-13T04:55:06.498048,14.27032739,.01400151,98.1919,101.3566,143.2488,217.8394,0,U,28480,999,12640,.32889259E-4,.49E-6,0
ARIANE 5 R/B,2004-049H,2026-07-12T22:17:31.530624,14.85477539,.00827308,98.2739,7.1798,305.7334,53.6203,0,U,28499,999,16438,.39255654E-4,.293E-5,0
CZ-2D R/B,2005-024B,2026-07-13T00:22:39.380448,15.72551891,.00020368,97.3471,214.7884,197.1497,162.9698,0,U,28738,999,15939,.40847992E-3,.54658E-3,0
ALOS (DAICHI),2006-002A,2026-07-13T07:05:19.294080,14.70099693,.00008049,98.1337,149.7840,95.4408,264.6890,0,U,28931,999,9193,.89836936E-4,.49E-5,0
